0 TBA - TO BE ASSIGNED
1 61734U 24198B   24309.09189423 -.00000084  00000-0  00000-0 0  9992
2 61734  24.9984 187.4315 7218391 178.8536 184.9088  2.30870324    04
0 TBA - TO BE ASSIGNED
1 61734U 24198B   24309.44114340 -.00000088  00000-0  00000+0 0  9990
2 61734  24.9979 187.3013 7217799 179.0819 115.1730  2.30850768    00
0 H-3 R/B
1 61734U 24198B   24309.44114340 -.00000088  00000-0  00000+0 0  9990
2 61734  24.9979 187.3013 7217799 179.0819 115.1730  2.30850768    00
0 H-3 R/B
1 61734U 24198B   24309.52585916  .00100450 -71280-6  17759-2 0  9990
2 61734  24.4389 187.4060 7286345 178.7571 185.4608  2.32330079    12
0 H-3 R/B
1 61734U 24198B   24309.52585916  .00100450 -71280-6  17759-2 0  9990
2 61734  24.4389 187.4060 7286345 178.7571 185.4608  2.32330079    01
0 H-3 R/B
1 61734U 24198B   24312.95015955  .00110803  34530-6  27258-2 0  9996
2 61734  24.4533 186.0261 7276641 181.1289 175.1388  2.33164516    94
0 H-3 R/B
1 61734U 24198B   24312.95015955  .00110803  34530-6  27258-2 0  9996
2 61734  24.4533 186.0261 7276641 181.1289 175.1388  2.33164516    72
0 H-3 R/B
1 61734U 24198B   24313.80499451  .00112579  84981-6  23127-2 0  9996
2 61734  24.4515 185.7001 7277238 181.6613 172.8263  2.33322847    90
0 H-3 R/B
1 61734U 24198B   24314.23198559  .00134658  10745-5  27459-2 0  9999
2 61734  24.4531 185.5343 7276557 181.9565 171.5476  2.33418578   120
0 H-3 R/B
1 61734U 24198B   24314.23198559  .00134658  10745-5  27459-2 0  9999
2 61734  24.4531 185.5343 7276557 181.9565 171.5476  2.33418578   108
0 H-3 R/B
1 61734U 24198B   24314.23199698  .00129635  10746-5  26057-2 0  9997
2 61734  24.4513 185.5342 7276676 181.9547 171.5551  2.33421661   122
0 H-3 R/B
1 61734U 24198B   24314.23199698  .00129635  10746-5  26057-2 0  9997
2 61734  24.4513 185.5342 7276676 181.9547 171.5551  2.33421661   100
0 H-3 R/B
1 61734U 24198B   24315.08540115  .00120187  14118-5  24473-2 0  9995
2 61734  24.4513 185.1947 7274871 182.5417 169.0167  2.33638570   143
0 H-3 R/B
1 61734U 24198B   24315.08540115  .00120187  14118-5  24473-2 0  9995
2 61734  24.4513 185.1947 7274871 182.5417 169.0167  2.33638570   121
0 H-3 R/B
1 61734U 24198B   24318.49117737  .00137113  66614-6  17430-2 0  9994
2 61734  24.4423 183.8246 7271573 184.9526 158.6622  2.34462879   220
0 H-3 R/B
1 61734U 24198B   24318.49117737  .00137113  66614-6  17430-2 0  9994
2 61734  24.4423 183.8246 7271573 184.9526 158.6622  2.34462879   208
0 H-3 R/B
1 61734U 24198B   24318.49117862  .00096479  66636-6  13415-2 0  9995
2 61734  24.4304 183.8257 7271182 184.9471 158.6874  2.34460750   208
0 H-3 R/B
1 61734U 24198B   24320.18981906  .00105284 -32899-6  20072-2 0  9999
2 61734  24.4567 183.1420 7265888 186.0887 153.8735  2.34849263   263
0 H-3 R/B
1 61734U 24198B   24320.18981906  .00105284 -32899-6  20072-2 0  9999
2 61734  24.4567 183.1420 7265888 186.0887 153.8735  2.34849263   241
0 H-3 R/B
1 61734U 24198B   24321.46217776  .00103667 -80943-6  20613-2 0  9995
2 61734  24.4547 182.6315 7263415 186.9719 150.1830  2.35108920   271
0 H-3 R/B
1 61734U 24198B   24321.88600140  .00098513 -88414-6  19452-2 0  9995
2 61734  24.4540 182.4603 7262894 187.2677 148.9538  2.35183413   280
0 H-3 R/B
1 61734U 24198B   24322.73318519  .00093898 -89727-6  18037-2 0  9993
2 61734  24.4506 182.1180 7261842 187.8584 146.5140  2.35352471   324
0 H-3 R/B
1 61734U 24198B   24322.73318519  .00093898 -89727-6  18037-2 0  9993
2 61734  24.4506 182.1180 7261842 187.8584 146.5140  2.35352471   302
0 H-3 R/B
1 61734U 24198B   24323.57990373  .00085856 -74500-6  16406-2 0  9996
2 61734  24.4511 181.7794 7260807 188.4443 144.1139  2.35493201   348
0 H-3 R/B
1 61734U 24198B   24323.57990373  .00085856 -74500-6  16406-2 0  9996
2 61734  24.4511 181.7794 7260807 188.4443 144.1139  2.35493201   326
0 H-3 R/B
1 61734U 24198B   24324.42610136  .00082841 -46512-6  16122-2 0  9995
2 61734  24.4476 181.4361 7259560 189.0383 141.7056  2.35633831   367
0 H-3 R/B
1 61734U 24198B   24324.42610136  .00082841 -46512-6  16122-2 0  9995
2 61734  24.4476 181.4361 7259560 189.0383 141.7056  2.35633831   345
0 H-3 R/B
1 61734U 24198B   24325.27184035  .00083467 -10688-6  16537-2 0  9993
2 61734  24.4484 181.0945 7258308 189.6264 139.3434  2.35776435   386
0 H-3 R/B
1 61734U 24198B   24325.27184035  .00083467 -10688-6  16537-2 0  9993
2 61734  24.4484 181.0945 7258308 189.6264 139.3434  2.35776435   364
0 H-3 R/B
1 61734U 24198B   24326.96177559  .00089211  64516-6  17034-2 0  9997
2 61734  24.4477 180.4106 7256420 190.8087 134.6549  2.36072473   422
0 H-3 R/B
1 61734U 24198B   24326.96177559  .00089211  64516-6  17034-2 0  9997
2 61734  24.4477 180.4106 7256420 190.8087 134.6549  2.36072473   400
0 H-3 R/B
1 61734U 24198B   24327.80601861  .00084688  95533-6  15310-2 0  9990
2 61734  24.4481 180.0696 7255831 191.4003 132.3414  2.36218982   442
0 H-3 R/B
1 61734U 24198B   24327.80601861  .00084688  95533-6  15310-2 0  9990
2 61734  24.4481 180.0696 7255831 191.4003 132.3414  2.36218982   420
0 H-3 R/B
1 61734U 24198B   24328.22794729  .00087723  10801-5  15875-2 0  9996
2 61734  24.4474 179.8977 7255255 191.6968 131.1930  2.36292078   453
0 H-3 R/B
1 61734U 24198B   24328.22794729  .00087723  10801-5  15875-2 0  9996
2 61734  24.4474 179.8977 7255255 191.6968 131.1930  2.36292078   431
0 H-3 R/B
1 61734U 24198B   24330.33558995  .00098456  13103-5  17620-2 0  9997
2 61734  24.4487 179.0451 7252156 193.1683 125.5883  2.36701367   500
0 H-3 R/B
1 61734U 24198B   24330.33558995  .00098456  13103-5  17620-2 0  9997
2 61734  24.4487 179.0451 7252156 193.1683 125.5883  2.36701367   487
0 H-3 R/B
1 61734U 24198B   24331.17762195  .00096977  11999-5  16308-2 0  9998
2 61734  24.4505 178.7015 7251350 193.7623 123.3621  2.36878391   528
0 H-3 R/B
1 61734U 24198B   24331.17762195  .00096977  11999-5  16308-2 0  9998
2 61734  24.4505 178.7015 7251350 193.7623 123.3621  2.36878391   506
0 H-3 R/B
1 61734U 24198B   24332.01910122  .00100729  97749-6  17256-2 0  9999
2 61734  24.4488 178.3634 7249849 194.3493 121.1996  2.37045110   542
0 H-3 R/B
1 61734U 24198B   24332.01910122  .00100729  97749-6  17256-2 0  9999
2 61734  24.4488 178.3634 7249849 194.3493 121.1996  2.37045110   520
0 H-3 R/B
1 61734U 24198B   24333.70037381  .00091812  27238-6  15266-2 0  9990
2 61734  24.4442 177.6744 7247577 195.5357 116.8983  2.37364991   564
0 H-3 R/B
1 61734U 24198B   24334.54024690  .00089924 -14103-6  14955-2 0  9995
2 61734  24.4439 177.3341 7246335 196.1249 114.8091  2.37519663   609
0 H-3 R/B
1 61734U 24198B   24334.54024690  .00089924 -14103-6  14955-2 0  9995
2 61734  24.4439 177.3341 7246335 196.1249 114.8091  2.37519663   586
0 H-3 R/B
1 61734U 24198B   24336.21852668  .00081052 -83618-6  13084-2 0  9998
2 61734  24.4420 176.6490 7244386 197.3080 110.6897  2.37798056   621
0 H-3 R/B
1 61734U 24198B   24336.63783619  .00077903 -94178-6  12601-2 0  9990
2 61734  24.4445 176.4813 7243819 197.5991 109.6987  2.37867112   659
0 H-3 R/B
1 61734U 24198B   24336.63783619  .00077903 -94178-6  12601-2 0  9990
2 61734  24.4445 176.4813 7243819 197.5991 109.6987  2.37867112   637
0 H-3 R/B
1 61734U 24198B   24339.15144708  .00072859 -67185-6  11106-2 0  9992
2 61734  24.4442 175.4562 7241348 199.3700 103.8192  2.38240777   713
0 H-3 R/B
1 61734U 24198B   24339.15144708  .00072859 -67185-6  11106-2 0  9992
2 61734  24.4442 175.4562 7241348 199.3700 103.8192  2.38240777   690
0 H-3 R/B
1 61734U 24198B   24339.98852813  .00075204 -27114-6  10907-2 0  9999
2 61734  24.4453 175.1187 7240665 199.9578 101.9284  2.38360547   736
0 H-3 R/B
1 61734U 24198B   24340.82518107  .00072898  19204-6  10147-2 0  9991
2 61734  24.4418 174.7732 7239871 200.5537 100.0492  2.38490103   754
0 H-3 R/B
1 61734U 24198B   24340.82518107  .00072898  19204-6  10147-2 0  9991
2 61734  24.4418 174.7732 7239871 200.5537 100.0492  2.38490103   732
0 H-3 R/B
1 61734U 24198B   24341.24335722  .00072738  41957-6  97680-3 0  9999
2 61734  24.4411 174.6013 7239553 200.8491  99.1247  2.38553857   760
0 H-3 R/B
1 61734U 24198B   24342.07941173  .00081153  80986-6  10726-2 0  9995
2 61734  24.4396 174.2584 7238624 201.4398  97.3111  2.38684898   784
0 H-3 R/B
1 61734U 24198B   24342.07941173  .00081153  80986-6  10726-2 0  9995
2 61734  24.4396 174.2584 7238624 201.4398  97.3111  2.38684898   762
0 H-3 R/B
1 61734U 24198B   24344.58500498  .00081053  92683-6  98717-3 0  9997
2 61734  24.4361 173.2310 7235902 203.2196  92.0126  2.39085416   841
0 H-3 R/B
1 61734U 24198B   24344.58500498  .00081053  92683-6  98717-3 0  9997
2 61734  24.4361 173.2310 7235902 203.2196  92.0126  2.39085416   829
0 H-3 R/B
1 61734U 24198B   24344.58501997  .00088621  92681-6  10736-2 0  9992
2 61734  24.4387 173.2351 7235919 203.2150  92.0245  2.39086090   843
0 H-3 R/B
1 61734U 24198B   24344.58501997  .00088621  92681-6  10736-2 0  9992
2 61734  24.4387 173.2351 7235919 203.2150  92.0245  2.39086090   821
0 H-3 R/B
1 61734U 24198B   24345.41929110  .00091478  58935-6  10488-2 0  9998
2 61734  24.4363 172.8894 7234997 203.8115  90.3066  2.39237052   866
0 H-3 R/B
1 61734U 24198B   24345.83625455  .00078092  37606-6  87902-3 0  9994
2 61734  24.4358 172.7176 7234581 204.1083  89.4611  2.39301168   875
0 H-3 R/B
1 61734U 24198B   24345.83625455  .00078092  37606-6  87902-3 0  9994
2 61734  24.4358 172.7176 7234581 204.1083  89.4611  2.39301168   853
0 H-3 R/B
1 61734U 24198B   24345.83625829  .00094073  37543-6  71334-3 0  9998
2 61734  24.4455 172.7197 7236583 204.1011  89.4419  2.39301742   875
0 H-3 R/B
1 61734U 24198B   24345.83625829  .00094073  37543-6  71334-3 0  9998
2 61734  24.4455 172.7197 7236583 204.1011  89.4419  2.39301742   853
0 H-3 R/B
1 61734U 24198B   24347.08648893  .00083362 -31990-6  71677-3 0  9993
2 61734  24.4436 172.2072 7234285 204.9903  86.9730  2.39509067   885
0 H-3 R/B
1 61734U 24198B   24347.50298976  .00064853 -53512-6  67464-3 0  9990
2 61734  24.4343 172.0333 7232757 205.2940  86.1566  2.39579830   915
